<?xml version='1.0' encoding='UTF-8'?>
<gpx version='1.1' creator='mapsoft-2'>
  <trk>
    <name>fan</name>
    <trkseg>
      <trkpt lat='39.3659690' lon='67.7227560'/>
      <trkpt lat='39.3680070' lon='67.9995390'/>
      <trkpt lat='39.5003370' lon='67.9995390'/>
      <trkpt lat='39.5000580' lon='68.5004470'/>
      <trkpt lat='39.5000580' lon='68.7502140'/>
      <trkpt lat='39.5002510' lon='68.9994660'/>
      <trkpt lat='39.3335250' lon='68.9993590'/>
      <trkpt lat='39.3336320' lon='69.4993440'/>
      <trkpt lat='39.3336320' lon='69.7493480'/>
      <trkpt lat='39.5002380' lon='69.7491070'/>
      <trkpt lat='39.5002290' lon='69.9991790'/>
      <trkpt lat='39.4999930' lon='70.5000440'/>
      <trkpt lat='39.3333100' lon='70.5000440'/>
      <trkpt lat='39.3332460' lon='70.1241920'/>
      <trkpt lat='39.0002440' lon='70.1240200'/>
      <trkpt lat='39.0001150' lon='69.9988790'/>
      <trkpt lat='39.0002440' lon='69.7501410'/>
      <trkpt lat='39.0003300' lon='69.4985070'/>
      <trkpt lat='38.6669630' lon='69.4983790'/>
      <trkpt lat='38.6666200' lon='69.3328330'/>
      <trkpt lat='38.6665340' lon='68.9988440'/>
      <trkpt lat='38.6666850' lon='68.4995450'/>
      <trkpt lat='38.6667920' lon='68.3532900'/>
      <trkpt lat='38.6227390' lon='68.3538050'/>
      <trkpt lat='38.6222030' lon='68.2752050'/>
      <trkpt lat='38.6425660' lon='68.2747760'/>
      <trkpt lat='38.6419870' lon='68.1906190'/>
      <trkpt lat='38.6668130' lon='68.1898680'/>
      <trkpt lat='38.6663840' lon='67.9989810'/>
      <trkpt lat='38.8281750' lon='67.9990240'/>
      <trkpt lat='38.8256000' lon='67.7326050'/>
      <trkpt lat='39.3662050' lon='67.7227560'/>
    </trkseg>
  </trk>
</gpx>
